[{"OBJECT_NAME":"COSMOS 2547","OBJECT_ID":"2020-075A","EPOCH":"2026-03-27T18:17:20.941152","MEAN_MOTION":2.13100219,"ECCENTRICITY":0.00073709,"INCLINATION":64.5985,"RA_OF_ASC_NODE":195.1905,"ARG_OF_PERICENTER":232.5213,"MEAN_ANOMALY":127.4084,"EPHEMERIS_TYPE":0,"CLASSIFICATION_TYPE":"U","NORAD_CAT_ID":46805,"ELEMENT_SET_NO":999,"REV_AT_EPOCH":4217,"BSTAR":0,"MEAN_MOTION_DOT":-3.1e-7,"MEAN_MOTION_DDOT":0},{"OBJECT_NAME":"GPS BIII-4","OBJECT_ID":"2020-078A","EPOCH":"2026-04-04T23:50:48.490656","MEAN_MOTION":2.00565254,"ECCENTRICITY":0.00699327,"INCLINATION":53.9939,"RA_OF_ASC_NODE":213.7458,"ARG_OF_PERICENTER":205.1668,"MEAN_ANOMALY":166.7977,"EPHEMERIS_TYPE":0,"CLASSIFICATION_TYPE":"U","NORAD_CAT_ID":46826,"ELEMENT_SET_NO":999,"REV_AT_EPOCH":4004,"BSTAR":0,"MEAN_MOTION_DOT":5.0e-8,"MEAN_MOTION_DDOT":0},{"OBJECT_NAME":"GSAT0223 (GALILEO 27)","OBJECT_ID":"2021-116A","EPOCH":"2026-04-04T22:59:50.619264","MEAN_MOTION":1.70475996,"ECCENTRICITY":0.00012633,"INCLINATION":57.1835,"RA_OF_ASC_NODE":343.6546,"ARG_OF_PERICENTER":288.2502,"MEAN_ANOMALY":249.3367,"EPHEMERIS_TYPE":0,"CLASSIFICATION_TYPE":"U","NORAD_CAT_ID":49809,"ELEMENT_SET_NO":999,"REV_AT_EPOCH":2693,"BSTAR":0,"MEAN_MOTION_DOT":-9.3e-7,"MEAN_MOTION_DDOT":0},{"OBJECT_NAME":"GSAT0224 (GALILEO 28)","OBJECT_ID":"2021-116B","EPOCH":"2026-04-02T10:36:38.888064","MEAN_MOTION":1.70475826,"ECCENTRICITY":0.00010814,"INCLINATION":57.1862,"RA_OF_ASC_NODE":343.7214,"ARG_OF_PERICENTER":14.2092,"MEAN_ANOMALY":171.7867,"EPHEMERIS_TYPE":0,"CLASSIFICATION_TYPE":"U","NORAD_CAT_ID":49810,"ELEMENT_SET_NO":999,"REV_AT_EPOCH":2691,"BSTAR":0,"MEAN_MOTION_DOT":-9.7e-7,"MEAN_MOTION_DDOT":0},{"OBJECT_NAME":"GOES 18","OBJECT_ID":"2022-021A","EPOCH":"2026-04-05T03:37:38.675712","MEAN_MOTION":1.00268291,"ECCENTRICITY":7.345e-5,"INCLINATION":0.0482,"RA_OF_ASC_NODE":39.4881,"ARG_OF_PERICENTER":32.5859,"MEAN_ANOMALY":38.7967,"EPHEMERIS_TYPE":0,"CLASSIFICATION_TYPE":"U","NORAD_CAT_ID":51850,"ELEMENT_SET_NO":999,"REV_AT_EPOCH":586,"BSTAR":0,"MEAN_MOTION_DOT":9.8e-7,"MEAN_MOTION_DDOT":0},{"OBJECT_NAME":"COSMOS 2557 (706K)","OBJECT_ID":"2022-075A","EPOCH":"2026-04-02T02:07:57.891936","MEAN_MOTION":2.1310186,"ECCENTRICITY":0.00107854,"INCLINATION":64.3418,"RA_OF_ASC_NODE":317.1673,"ARG_OF_PERICENTER":282.9879,"MEAN_ANOMALY":76.9461,"EPHEMERIS_TYPE":0,"CLASSIFICATION_TYPE":"U","NORAD_CAT_ID":52984,"ELEMENT_SET_NO":999,"REV_AT_EPOCH":2909,"BSTAR":0,"MEAN_MOTION_DOT":-4.5e-7,"MEAN_MOTION_DDOT":0},{"OBJECT_NAME":"METEOSAT-12 (MTG-I1)","OBJECT_ID":"2022-170C","EPOCH":"2026-04-05T05:28:38.784288","MEAN_MOTION":1.00274811,"ECCENTRICITY":0.00015195,"INCLINATION":0.7406,"RA_OF_ASC_NODE":26.5987,"ARG_OF_PERICENTER":303.8062,"MEAN_ANOMALY":304.9865,"EPHEMERIS_TYPE":0,"CLASSIFICATION_TYPE":"U","NORAD_CAT_ID":54743,"ELEMENT_SET_NO":999,"REV_AT_EPOCH":1224,"BSTAR":0,"MEAN_MOTION_DOT":-5.0e-8,"MEAN_MOTION_DDOT":0},{"OBJECT_NAME":"METEOR-M2 3","OBJECT_ID":"2023-091A","EPOCH":"2026-04-05T07:21:30.436128","MEAN_MOTION":14.24040655,"ECCENTRICITY":0.00044687,"INCLINATION":98.6163,"RA_OF_ASC_NODE":151.751,"ARG_OF_PERICENTER":37.49,"MEAN_ANOMALY":322.659,"EPHEMERIS_TYPE":0,"CLASSIFICATION_TYPE":"U","NORAD_CAT_ID":57166,"ELEMENT_SET_NO":999,"REV_AT_EPOCH":14414,"BSTAR":3.1281531e-5,"MEAN_MOTION_DOT":2.9e-7,"MEAN_MOTION_DDOT":0},{"OBJECT_NAME":"COSMOS 2569 (703K)","OBJECT_ID":"2023-114A","EPOCH":"2026-04-05T01:10:51.680064","MEAN_MOTION":2.13103949,"ECCENTRICITY":0.00128361,"INCLINATION":65.262,"RA_OF_ASC_NODE":75.0854,"ARG_OF_PERICENTER":293.8382,"MEAN_ANOMALY":66.0118,"EPHEMERIS_TYPE":0,"CLASSIFICATION_TYPE":"U","NORAD_CAT_ID":57517,"ELEMENT_SET_NO":999,"REV_AT_EPOCH":2070,"BSTAR":0,"MEAN_MOTION_DOT":0,"MEAN_MOTION_DDOT":0},{"OBJECT_NAME":"METEOR-M2 4","OBJECT_ID":"2024-039A","EPOCH":"2026-04-05T05:43:34.258944","MEAN_MOTION":14.22421535,"ECCENTRICITY":0.00076305,"INCLINATION":98.6949,"RA_OF_ASC_NODE":55.4804,"ARG_OF_PERICENTER":29.0731,"MEAN_ANOMALY":331.0871,"EPHEMERIS_TYPE":0,"CLASSIFICATION_TYPE":"U","NORAD_CAT_ID":59051,"ELEMENT_SET_NO":999,"REV_AT_EPOCH":10889,"BSTAR":4.1460982e-5,"MEAN_MOTION_DOT":4.9e-7,"MEAN_MOTION_DDOT":0},{"OBJECT_NAME":"GSAT0225 (GALILEO 29)","OBJECT_ID":"2024-079A","EPOCH":"2026-03-28T01:49:00.365952","MEAN_MOTION":1.70474547,"ECCENTRICITY":0.00027404,"INCLINATION":55.0678,"RA_OF_ASC_NODE":103.3445,"ARG_OF_PERICENTER":270.8462,"MEAN_ANOMALY":214.737,"EPHEMERIS_TYPE":0,"CLASSIFICATION_TYPE":"U","NORAD_CAT_ID":59598,"ELEMENT_SET_NO":999,"REV_AT_EPOCH":1193,"BSTAR":0,"MEAN_MOTION_DOT":3.9e-7,"MEAN_MOTION_DDOT":0},{"OBJECT_NAME":"GSAT0227 (GALILEO 30)","OBJECT_ID":"2024-079C","EPOCH":"2026-04-04T16:19:18.244992","MEAN_MOTION":1.704747,"ECCENTRICITY":7.831e-5,"INCLINATION":55.067,"RA_OF_ASC_NODE":103.1309,"ARG_OF_PERICENTER":7.5517,"MEAN_ANOMALY":352.4755,"EPHEMERIS_TYPE":0,"CLASSIFICATION_TYPE":"U","NORAD_CAT_ID":59600,"ELEMENT_SET_NO":999,"REV_AT_EPOCH":1211,"BSTAR":0,"MEAN_MOTION_DOT":2.8e-7,"MEAN_MOTION_DDOT":0},{"OBJECT_NAME":"GSAT0232 (GALILEO 32)","OBJECT_ID":"2024-167A","EPOCH":"2026-04-01T09:20:34.784736","MEAN_MOTION":1.70474484,"ECCENTRICITY":0.00040532,"INCLINATION":55.2109,"RA_OF_ASC_NODE":223.4183,"ARG_OF_PERICENTER":206.9701,"MEAN_ANOMALY":148.926,"EPHEMERIS_TYPE":0,"CLASSIFICATION_TYPE":"U","NORAD_CAT_ID":61182,"ELEMENT_SET_NO":999,"REV_AT_EPOCH":956,"BSTAR":0,"MEAN_MOTION_DOT":-2.4e-7,"MEAN_MOTION_DDOT":0},{"OBJECT_NAME":"GSAT0226 (GALILEO 31)","OBJECT_ID":"2024-167B","EPOCH":"2026-04-04T19:38:35.206656","MEAN_MOTION":1.70474512,"ECCENTRICITY":0.00014542,"INCLINATION":55.2076,"RA_OF_ASC_NODE":223.3318,"ARG_OF_PERICENTER":166.2558,"MEAN_ANOMALY":225.5556,"EPHEMERIS_TYPE":0,"CLASSIFICATION_TYPE":"U","NORAD_CAT_ID":61183,"ELEMENT_SET_NO":999,"REV_AT_EPOCH":960,"BSTAR":0,"MEAN_MOTION_DOT":-5.0e-8,"MEAN_MOTION_DDOT":0},{"OBJECT_NAME":"GSAT0233 (GALILEO 33)","OBJECT_ID":"2025-302A","EPOCH":"2026-04-04T21:57:21.900384","MEAN_MOTION":1.70474884,"ECCENTRICITY":0.00024897,"INCLINATION":54.2855,"RA_OF_ASC_NODE":104.2166,"ARG_OF_PERICENTER":236.9893,"MEAN_ANOMALY":310.4133,"EPHEMERIS_TYPE":0,"CLASSIFICATION_TYPE":"U","NORAD_CAT_ID":67160,"ELEMENT_SET_NO":999,"REV_AT_EPOCH":187,"BSTAR":0,"MEAN_MOTION_DOT":2.7e-7,"MEAN_MOTION_DDOT":0},{"OBJECT_NAME":"GSAT0234 (GALILEO 34)","OBJECT_ID":"2025-302C","EPOCH":"2026-04-02T20:25:54.111072","MEAN_MOTION":1.7047482,"ECCENTRICITY":0.00038847,"INCLINATION":54.2863,"RA_OF_ASC_NODE":104.2742,"ARG_OF_PERICENTER":286.43,"MEAN_ANOMALY":254.6427,"EPHEMERIS_TYPE":0,"CLASSIFICATION_TYPE":"U","NORAD_CAT_ID":67162,"ELEMENT_SET_NO":999,"REV_AT_EPOCH":189,"BSTAR":0,"MEAN_MOTION_DOT":2.9e-7,"MEAN_MOTION_DDOT":0}]
